COMMENT,ORIGINATOR,NORAD_CAT_ID,OBJECT_NAME,OBJECT_TYPE,CLASSIFICATION_TYPE,INTLDES,EPOCH,EPOCH_MICROSECONDS,MEAN_MOTION,ECCENTRICITY,INCLINATION,RA_OF_ASC_NODE,ARG_OF_PERICENTER,MEAN_ANOMALY,EPHEMERIS_TYPE,ELEMENT_SET_NO,REV_AT_EPOCH,BSTAR,MEAN_MOTION_DOT,MEAN_MOTION_DDOT,FILE,TLE_LINE0,TLE_LINE1,TLE_LINE2,OBJECT_ID,OBJECT_NUMBER,SEMIMAJOR_AXIS,PERIOD,APOGEE,PERIGEE,DECAYED
"GENERATED VIA SPACETRACK.ORG API","18 SPCS","55097","SPACEBEE-160","PAYLOAD","U","23001CS","2023-09-22 17:01:57","180576","15.23708956","0.001387","97.466","325.142","27.7983","332.3993","0","999","3993","0.0010673","0.0002569","0","4013859","0 SPACEBEE-160","1 55097U 23001CS  23265.70968959  .00025690  00000-0  10673-2 0  9994","2 55097  97.4660 325.1420 0013870  27.7983 332.3993 15.23708956 39934","2023-001CS","55097","6872.802","94.506","504.200","485.134","0"
"GENERATED VIA SPACETRACK.ORG API","18 SPCS","55097","SPACEBEE-160","PAYLOAD","U","23001CS","2023-09-23 04:03:54","771552","15.23734679","0.0013865","97.4659","325.5994","26.0998","334.0935","0","999","4000","0.0010831","0.00026093","0","4014543","0 SPACEBEE-160","1 55097U 23001CS  23266.16938393  .00026093  00000-0  10831-2 0  9998","2 55097  97.4659 325.5994 0013865  26.0998 334.0935 15.23734679 40000","2023-001CS","55097","6872.725","94.505","504.119","485.061","0"
"GENERATED VIA SPACETRACK.ORG API","18 SPCS","55097","SPACEBEE-160","PAYLOAD","U","23001CS","2023-09-24 03:42:21","729024","15.23788071","0.0013773","97.4661","326.5799","22.6443","337.5399","0","999","4015","0.0010396","0.00025077","0","4015082","0 SPACEBEE-160","1 55097U 23001CS  23267.15441816  .00025077  00000-0  10396-2 0  9994","2 55097  97.4661 326.5799 0013773  22.6443 337.5399 15.23788071 40155","2023-001CS","55097","6872.564","94.501","503.895","484.963","0"
"GENERATED VIA SPACETRACK.ORG API","18 SPCS","55097","SPACEBEE-160","PAYLOAD","U","23001CS","2023-09-24 14:44:17","296512","15.23814073","0.0013679","97.4662","327.0372","20.9502","339.2293","0","999","4022","0.0010846","0.00026189","0","4015673","0 SPACEBEE-160","1 55097U 23001CS  23267.61408908  .00026189  00000-0  10846-2 0  9995","2 55097  97.4662 327.0372 0013679  20.9502 339.2293 15.23814073 40223","2023-001CS","55097","6872.486","94.500","503.752","484.950","0"
"GENERATED VIA SPACETRACK.ORG API","18 SPCS","55097","SPACEBEE-160","PAYLOAD","U","23001CS","2023-09-25 03:20:45","659040","15.23845368","0.001365","97.4662","327.5604","18.8196","341.3543","0","999","4030","0.0012163","0.00029417","0","4016277","0 SPACEBEE-160","1 55097U 23001CS  23268.13941735  .00029417  00000-0  12163-2 0  9994","2 55097  97.4662 327.5604 0013650  18.8196 341.3543 15.23845368 40302","2023-001CS","55097","6872.392","94.498","503.638","484.876","0"
"GENERATED VIA SPACETRACK.ORG API","18 SPCS","55097","SPACEBEE-160","PAYLOAD","U","23001CS","2023-09-25 03:20:45","659040","15.23845368","0.001365","97.4662","327.5604","18.8196","341.3543","0","999","4030","0.0012163","0.00029417","0","4016340","0 SPACEBEE-160","1 55097U 23001CS  23268.13941735  .00029417  00000-0  12163-2 0  9994","2 55097  97.4662 327.5604 0013650  18.8196 341.3543 15.23845368 40302","2023-001CS","55097","6872.392","94.498","503.638","484.876","0"
"GENERATED VIA SPACETRACK.ORG API","18 SPCS","55097","SPACEBEE-160","PAYLOAD","U","23001CS","2023-09-25 15:57:12","788640","15.23888273","0.0013579","97.4663","328.083","16.9691","343.1997","0","999","4038","0.0014493","0.00035137","0","4016726","0 SPACEBEE-160","1 55097U 23001CS  23268.66473135  .00035137  00000-0  14493-2 0  9990","2 55097  97.4663 328.0830 0013579  16.9691 343.1997 15.23888273 40382","2023-001CS","55097","6872.263","94.495","503.460","484.796","0"
"GENERATED VIA SPACETRACK.ORG API","18 SPCS","55097","SPACEBEE-160","PAYLOAD","U","23001CS","2023-09-25 20:40:52","658112","15.23902382","0.0013593","97.4662","328.2792","16.2255","343.9414","0","999","4041","0.0014358","0.00034822","0","4016730","0 SPACEBEE-160","1 55097U 23001CS  23268.86172058  .00034822  00000-0  14358-2 0  9992","2 55097  97.4662 328.2792 0013593  16.2255 343.9414 15.23902382 40419","2023-001CS","55097","6872.220","94.494","503.427","484.744","0"
"GENERATED VIA SPACETRACK.ORG API","18 SPCS","55097","SPACEBEE-160","PAYLOAD","U","23001CS","2023-09-26 09:17:18","320640","15.23935672","0.0013552","97.4663","328.8021","14.358","345.804","0","999","4049","0.0012375","0.00030013","0","4017272","0 SPACEBEE-160","1 55097U 23001CS  23269.38701760  .00030013  00000-0  12375-2 0  9993","2 55097  97.4663 328.8021 0013552  14.3580 345.8040 15.23935672 40498","2023-001CS","55097","6872.120","94.492","503.298","484.672","0"
"GENERATED VIA SPACETRACK.ORG API","18 SPCS","55097","SPACEBEE-160","PAYLOAD","U","23001CS","2023-09-26 17:10:03","749952","15.23964455","0.0013529","97.4663","329.129","13.2929","346.8662","0","999","4054","0.0014745","0.00035833","0","4017557","0 SPACEBEE-160","1 55097U 23001CS  23269.71532118  .00035833  00000-0  14745-2 0  9997","2 55097  97.4663 329.1290 0013529  13.2929 346.8662 15.23964455 40547","2023-001CS","55097","6872.034","94.490","503.196","484.602","0"
"GENERATED VIA SPACETRACK.ORG API","18 SPCS","55097","SPACEBEE-160","PAYLOAD","U","23001CS","2023-09-26 17:10:03","749952","15.23964455","0.0013529","97.4663","329.129","13.2929","346.8662","0","999","4054","0.0014745","0.00035833","0","4017567","0 SPACEBEE-160","1 55097U 23001CS  23269.71532118  .00035833  00000-0  14745-2 0  9997","2 55097  97.4663 329.1290 0013529  13.2929 346.8662 15.23964455 40547","2023-001CS","55097","6872.034","94.490","503.196","484.602","0"
"GENERATED VIA SPACETRACK.ORG API","18 SPCS","55097","SPACEBEE-160","PAYLOAD","U","23001CS","2023-09-27 02:37:21","703008","15.2399126","0.0013503","97.4662","329.5212","11.9878","348.1678","0","999","4060","0.0013831","0.00033624","0","4018203","0 SPACEBEE-160","1 55097U 23001CS  23270.10927897  .00033624  00000-0  13831-2 0  9995","2 55097  97.4662 329.5212 0013503  11.9878 348.1678 15.23991260 40607","2023-001CS","55097","6871.953","94.489","503.097","484.539","0"
"GENERATED VIA SPACETRACK.ORG API","18 SPCS","55097","SPACEBEE-160","PAYLOAD","U","23001CS","2023-09-28 03:50:07","24128","15.24048475","0.001339","97.4659","330.5669","8.601","351.5454","0","999","4076","0.0010065","0.0002446","0","4018784","0 SPACEBEE-160","1 55097U 23001CS  23271.15980352  .00024460  00000-0  10065-2 0  9990","2 55097  97.4659 330.5669 0013390   8.6010 351.5454 15.24048475 40765","2023-001CS","55097","6871.781","94.485","502.847","484.445","0"
"GENERATED VIA SPACETRACK.ORG API","18 SPCS","55097","SPACEBEE-160","PAYLOAD","U","23001CS","2023-09-28 14:51:55","816128","15.2407266","0.0013357","97.4658","331.0246","6.9107","353.2312","0","999","4083","0.00098071","0.00023846","0","4019158","0 SPACEBEE-160","1 55097U 23001CS  23271.61939602  .00023846  00000-0  98071-3 0  9994","2 55097  97.4658 331.0246 0013357   6.9107 353.2312 15.24072660 40835","2023-001CS","55097","6871.708","94.484","502.752","484.395","0"
"GENERATED VIA SPACETRACK.ORG API","18 SPCS","55097","SPACEBEE-160","PAYLOAD","U","23001CS","2023-09-28 18:01:01","76160","15.24079403","0.0013369","97.4653","331.1549","6.1307","354.0091","0","999","4085","0.0010129","0.00024639","0","4019377","0 SPACEBEE-160","1 55097U 23001CS  23271.75070690  .00024639  00000-0  10129-2 0  9990","2 55097  97.4653 331.1549 0013369   6.1307 354.0091 15.24079403 40851","2023-001CS","55097","6871.688","94.483","502.740","484.366","0"
"GENERATED VIA SPACETRACK.ORG API","18 SPCS","55097","SPACEBEE-160","PAYLOAD","U","23001CS","2023-09-29 08:11:54","155328","15.24107085","0.0013312","97.4652","331.7438","3.8428","356.2909","0","999","4094","0.00097733","0.00023787","0","4019951","0 SPACEBEE-160","1 55097U 23001CS  23272.34159902  .00023787  00000-0  97733-3 0  9990","2 55097  97.4652 331.7438 0013312   3.8428 356.2909 15.24107085 40949","2023-001CS","55097","6871.605","94.482","502.617","484.323","0"
"GENERATED VIA SPACETRACK.ORG API","18 SPCS","55097","SPACEBEE-160","PAYLOAD","U","23001CS","2023-09-29 08:11:54","155328","15.24107085","0.0013312","97.4652","331.7438","3.8428","356.2909","0","999","4094","0.00097733","0.00023787","0","4020020","0 SPACEBEE-160","1 55097U 23001CS  23272.34159902  .00023787  00000-0  97733-3 0  9990","2 55097  97.4652 331.7438 0013312   3.8428 356.2909 15.24107085 40949","2023-001CS","55097","6871.605","94.482","502.617","484.323","0"
"GENERATED VIA SPACETRACK.ORG API","18 SPCS","55097","SPACEBEE-160","PAYLOAD","U","23001CS","2023-09-30 03:06:23","138208","15.24155816","0.0013259","97.4646","332.5289","0.8102","359.3154","0","999","4106","0.0011234","0.00027406","0","4020567","0 SPACEBEE-160","1 55097U 23001CS  23273.12943447  .00027406  00000-0  11234-2 0  9995","2 55097  97.4646 332.5289 0013259   0.8102 359.3154 15.24155816 41066","2023-001CS","55097","6871.459","94.479","502.434","484.213","0"
"GENERATED VIA SPACETRACK.ORG API","18 SPCS","55097","SPACEBEE-160","PAYLOAD","U","23001CS","2023-09-30 03:06:23","138208","15.24155816","0.0013259","97.4646","332.5289","0.8102","359.3154","0","999","4106","0.0011234","0.00027406","0","4020886","0 SPACEBEE-160","1 55097U 23001CS  23273.12943447  .00027406  00000-0  11234-2 0  9995","2 55097  97.4646 332.5289 0013259   0.8102 359.3154 15.24155816 41066","2023-001CS","55097","6871.459","94.479","502.434","484.213","0"
"GENERATED VIA SPACETRACK.ORG API","18 SPCS","55097","SPACEBEE-160","PAYLOAD","U","23001CS","2023-10-01 02:44:26","400480","15.24218611","0.0013141","97.4643","333.5093","357.3218","2.7946","0","999","4121","0.0012469","0.00030494","0","4021842","0 SPACEBEE-160","1 55097U 23001CS  23274.11419445  .00030494  00000-0  12469-2 0  9993","2 55097  97.4643 333.5093 0013141 357.3218   2.7946 15.24218611 41213","2023-001CS","55097","6871.270","94.475","502.164","484.105","0"
